NORAD_CAT_ID,OBJECT_NAME,OBJECT_TYPE,EPOCH,MEAN_MOTION,ECCENTRICITY,INCLINATION,RA_OF_ASC_NODE,ARG_OF_PERICENTER,MEAN_ANOMALY,BSTAR,MEAN_MOTION_DOT,MEAN_MOTION_DDOT,TLE_LINE0,TLE_LINE1,TLE_LINE2,SEMIMAJOR_AXIS,PERIOD,APOGEE,PERIGEE,DECAYED
52372.0,STARLINK-3796,PAYLOAD,2023-04-22 01:44:28,15.08851842,0.0001209,53.2151,234.5021,79.1086,281.0042,0.0015282,0.00024125,0.0,0 STARLINK-3796,1 52372U 22045AT  23112.07254747  .00024125  00000-0  15282-2 0  9991,2 52372  53.2151 234.5021 0001209  79.1086 281.0042 15.08851842 57009,6917.844,95.437,540.546,538.873,0.0
52372.0,STARLINK-3796,PAYLOAD,2023-04-22 12:52:10,15.08846089,0.00015,53.2155,232.4204,84.3292,275.7871,0.00056191,8.668e-05,0.0,0 STARLINK-3796,1 52372U 22045AT  23112.53622844  .00008668  00000-0  56191-3 0  9998,2 52372  53.2155 232.4204 0001500  84.3292 275.7871 15.08846089 57078,6917.862,95.437,540.764,538.689,0.0
52372.0,STARLINK-3796,PAYLOAD,2023-04-23 07:56:47,15.08844428,0.0001266,53.2159,228.8526,93.7329,266.3808,0.00035948,5.439e-05,0.0,0 STARLINK-3796,1 52372U 22045AT  23113.33110908  .00005439  00000-0  35948-3 0  9990,2 52372  53.2159 228.8526 0001266  93.7329 266.3808 15.08844428 57196,6917.867,95.437,540.608,538.856,0.0
52372.0,STARLINK-3796,PAYLOAD,2023-04-23 11:07:34,15.08844447,0.0001379,53.215,228.2583,85.3841,274.7308,0.00042926,6.551e-05,0.0,0 STARLINK-3796,1 52372U 22045AT  23113.46359052  .00006551  00000-0  42926-3 0  9999,2 52372  53.2150 228.2583 0001379  85.3841 274.7308 15.08844447 57217,6917.867,95.437,540.686,538.778,0.0
52372.0,STARLINK-3796,PAYLOAD,2023-04-23 14:18:20,15.08842733,0.0001345,53.2156,227.6625,93.7922,266.3224,0.00034488,5.206e-05,0.0,0 STARLINK-3796,1 52372U 22045AT  23113.59607026  .00005206  00000-0  34488-3 0  9990,2 52372  53.2156 227.6625 0001345  93.7922 266.3224 15.08842733 57231,6917.872,95.437,540.667,538.807,0.0
52372.0,STARLINK-3796,PAYLOAD,2023-04-24 23:41:22,15.08784751,0.0001875,53.2156,221.4208,200.0324,160.0594,-0.00097918,-0.00015815,0.0,0 STARLINK-3796,1 52372U 22045AT  23114.98706942 -.00015815  00000-0 -97918-3 0  9997,2 52372  53.2156 221.4208 0001875 200.0324 160.0594 15.08784751 57445,6918.049,95.441,541.211,538.617,0.0
52372.0,STARLINK-3796,PAYLOAD,2023-04-25 10:49:07,15.08783676,0.0001223,53.2165,219.3348,120.3116,239.7997,0.00061083,9.432e-05,0.0,0 STARLINK-3796,1 52372U 22045AT  23115.45078031  .00009432  00000-0  61083-3 0  9991,2 52372  53.2165 219.3348 0001223 120.3116 239.7997 15.08783676 57510,6918.053,95.441,540.764,539.071,0.0
52372.0,STARLINK-3796,PAYLOAD,2023-04-26 12:15:19,15.08832717,0.0001143,53.2151,214.5804,113.8171,246.2941,0.0010752,0.00016862,0.0,0 STARLINK-3796,1 52372U 22045AT  23116.51063694  .00016862  00000-0  10752-2 0  9999,2 52372  53.2151 214.5804 0001143 113.8171 246.2941 15.08832717 57678,6917.903,95.438,540.558,538.977,0.0
52372.0,STARLINK-3796,PAYLOAD,2023-04-26 17:01:28,15.08845154,0.0001112,53.2151,213.6873,113.1587,246.9522,0.0012822,0.0002018,0.0,0 STARLINK-3796,1 52372U 22045AT  23116.70935618  .00020180  00000-0  12822-2 0  9992,2 52372  53.2151 213.6873 0001112 113.1587 246.9522 15.08845154 57709,6917.865,95.437,540.499,538.96,0.0
52372.0,STARLINK-3796,PAYLOAD,2023-04-26 23:23:00,15.08859036,0.0001077,53.2147,212.4983,111.6456,248.465,0.0014269,0.00022506,0.0,0 STARLINK-3796,1 52372U 22045AT  23116.97431343  .00022506  00000-0  14269-2 0  9998,2 52372  53.2147 212.4983 0001077 111.6456 248.4650 15.08859036 57748,6917.822,95.436,540.432,538.942,0.0
52372.0,STARLINK-3796,PAYLOAD,2023-04-27 12:06:06,15.08846448,0.0001166,53.2149,210.1161,96.9609,263.1516,0.00075241,0.00011709,0.0,0 STARLINK-3796,1 52372U 22045AT  23117.50423687  .00011709  00000-0  75241-3 0  9991,2 52372  53.2149 210.1161 0001166  96.9609 263.1516 15.08846448 57824,6917.861,95.437,540.532,538.919,0.0
52372.0,STARLINK-3796,PAYLOAD,2023-04-27 23:13:47,15.08851705,0.000139,53.2158,208.0391,82.6486,277.4664,0.00058793,9.084e-05,0.0,0 STARLINK-3796,1 52372U 22045AT  23117.96791639  .00009084  00000-0  58793-3 0  9992,2 52372  53.2158 208.0391 0001390  82.6486 277.4664 15.08851705 57890,6917.845,95.437,540.671,538.748,0.0
52372.0,STARLINK-3796,PAYLOAD,2023-04-28 11:56:52,15.08850667,9.6e-05,53.2145,205.6608,82.3752,277.735,0.00026957,4.006e-05,0.0,0 STARLINK-3796,1 52372U 22045AT  23118.49783243  .00004006  00000-0  26957-3 0  9999,2 52372  53.2145 205.6608 0000960  82.3752 277.7350 15.08850667 57975,6917.848,95.437,540.377,539.049,0.0
52372.0,STARLINK-3796,PAYLOAD,2023-04-29 05:26:07,15.08840897,0.000124,53.2149,202.387,89.2659,270.8476,2.9666e-05,1.84e-06,0.0,0 STARLINK-3796,1 52372U 22045AT  23119.22647393  .00000184  00000-0  29666-4 0  9990,2 52372  53.2149 202.3870 0001240  89.2659 270.8476 15.08840897 58088,6917.878,95.437,540.6,538.885,0.0
52372.0,STARLINK-3796,PAYLOAD,2023-04-29 11:47:39,15.08841076,0.0001145,53.2144,201.1992,73.9073,286.2045,0.00012305,1.671e-05,0.0,0 STARLINK-3796,1 52372U 22045AT  23119.49143342  .00001671  00000-0  12305-3 0  9997,2 52372  53.2144 201.1992 0001145  73.9073 286.2045 15.08841076 58127,6917.877,95.437,540.534,538.95,0.0
52372.0,STARLINK-3796,PAYLOAD,2023-04-29 16:33:49,15.08848421,0.0001181,53.2146,200.3055,85.8328,274.2799,0.00038526,5.85e-05,0.0,0 STARLINK-3796,1 52372U 22045AT  23119.69015162  .00005850  00000-0  38526-3 0  9993,2 52372  53.2146 200.3055 0001181  85.8328 274.2799 15.08848421 58152,6917.855,95.437,540.537,538.903,0.0
52372.0,STARLINK-3796,PAYLOAD,2023-04-30 11:38:26,15.08842102,0.0001184,53.2156,196.7395,83.3356,276.7771,0.00016626,2.359e-05,0.0,0 STARLINK-3796,1 52372U 22045AT  23120.48503455  .00002359  00000-0  16626-3 0  9997,2 52372  53.2156 196.7395 0001184  83.3356 276.7771 15.08842102 58275,6917.874,95.437,540.558,538.92,0.0
52372.0,STARLINK-3796,PAYLOAD,2023-05-01 11:29:14,15.08836861,0.0001196,53.2156,192.2756,93.5084,266.6045,8.1269e-05,1.006e-05,0.0,0 STARLINK-3796,1 52372U 22045AT  23121.47863876  .00001006  00000-0  81269-4 0  9997,2 52372  53.2156 192.2756 0001196  93.5084 266.6045 15.08836861 58425,6917.89,95.438,540.582,538.928,0.0
52372.0,STARLINK-3796,PAYLOAD,2023-05-02 09:44:38,15.08855714,0.0001198,53.2155,188.1138,85.235,274.8779,0.00066287,0.00010282,0.0,0 STARLINK-3796,1 52372U 22045AT  23122.40599538  .00010282  00000-0  66287-3 0  9990,2 52372  53.2155 188.1138 0001198  85.2350 274.8779 15.08855714 58566,6917.832,95.437,540.526,538.869,0.0
52372.0,STARLINK-3796,PAYLOAD,2023-05-02 20:52:19,15.08846295,0.0001377,53.2145,186.0286,73.405,286.7094,0.00042011,6.406e-05,0.0,0 STARLINK-3796,1 52372U 22045AT  23122.86967043  .00006406  00000-0  42011-3 0  9992,2 52372  53.2145 186.0286 0001377  73.4050 286.7094 15.08846295 58635,6917.861,95.437,540.679,538.774,0.0
52372.0,STARLINK-3796,PAYLOAD,2023-05-03 04:49:15,15.08838495,0.0001315,53.2156,184.545,97.854,262.2602,-8.6967e-05,-1.672e-05,0.0,0 STARLINK-3796,1 52372U 22045AT  23123.20087629 -.00001672  00000-0 -86967-4 0  9995,2 52372  53.2156 184.5450 0001315  97.8540 262.2602 15.08838495 58681,6917.885,95.438,540.66,538.84,0.0
52372.0,STARLINK-3796,PAYLOAD,2023-05-03 12:46:11,15.08837706,0.0001137,53.2158,183.0599,91.0014,269.1108,0.00018122,2.597e-05,0.0,0 STARLINK-3796,1 52372U 22045AT  23123.53207734  .00002597  00000-0  18122-3 0  9994,2 52372  53.2158 183.0599 0001137  91.0014 269.1108 15.08837706 58732,6917.887,95.438,540.539,538.966,0.0
52372.0,STARLINK-3796,PAYLOAD,2023-05-03 14:21:34,15.08837982,0.0001134,53.2158,182.7622,89.7612,270.351,0.00023872,3.513e-05,0.0,0 STARLINK-3796,1 52372U 22045AT  23123.59831759  .00003513  00000-0  23872-3 0  9997,2 52372  53.2158 182.7622 0001134  89.7612 270.3510 15.08837982 58748,6917.887,95.438,540.536,538.967,0.0
52372.0,STARLINK-3796,PAYLOAD,2023-05-04 11:01:35,15.08840689,0.0001153,53.2151,178.8968,88.4617,271.6507,0.00034716,5.242e-05,0.0,0 STARLINK-3796,1 52372U 22045AT  23124.45944029  .00005242  00000-0  34716-3 0  9998,2 52372  53.2151 178.8968 0001153  88.4617 271.6507 15.08840689 58874,6917.878,95.438,540.541,538.946,0.0
52372.0,STARLINK-3796,PAYLOAD,2023-05-04 20:33:54,15.08841899,0.0001155,53.2149,177.1127,84.4239,275.6885,0.000276,4.108e-05,0.0,0 STARLINK-3796,1 52372U 22045AT  23124.85688056  .00004108  00000-0  27600-3 0  9991,2 52372  53.2149 177.1127 0001155  84.4239 275.6885 15.08841899 58932,6917.875,95.437,540.539,538.941,0.0
52372.0,STARLINK-3796,PAYLOAD,2023-05-05 09:16:59,15.08839273,0.0001173,53.2142,174.7329,81.9716,278.1409,0.00015558,2.189e-05,0.0,0 STARLINK-3796,1 52372U 22045AT  23125.38680257  .00002189  00000-0  15558-3 0  9991,2 52372  53.2142 174.7329 0001173  81.9716 278.1409 15.08839273 59017,6917.883,95.438,540.559,538.936,0.0
52372.0,STARLINK-3796,PAYLOAD,2023-05-05 20:24:41,15.08837646,0.0001224,53.213,172.6503,77.3609,282.752,9.6119e-05,1.242e-05,0.0,0 STARLINK-3796,1 52372U 22045AT  23125.85048421  .00001242  00000-0  96119-4 0  9996,2 52372  53.2130 172.6503 0001224  77.3609 282.7520 15.08837646 59086,6917.888,95.438,540.599,538.906,0.0
52372.0,STARLINK-3796,PAYLOAD,2023-05-06 07:32:23,15.08841868,0.0001159,53.2138,170.5673,83.1763,276.9361,9.4775e-05,1.221e-05,0.0,0 STARLINK-3796,1 52372U 22045AT  23126.31416437  .00001221  00000-0  94775-4 0  9997,2 52372  53.2138 170.5673 0001159  83.1763 276.9361 15.08841868 59159,6917.875,95.437,540.541,538.938,0.0
52372.0,STARLINK-3796,PAYLOAD,2023-05-07 02:37:01,15.08846556,0.0001283,53.213,166.9994,79.1848,280.9289,0.00029715,4.445e-05,0.0,0 STARLINK-3796,1 52372U 22045AT  23127.10904350  .00004445  00000-0  29715-3 0  9993,2 52372  53.2130 166.9994 0001283  79.1848 280.9289 15.08846556 59279,6917.86,95.437,540.613,538.838,0.0
52372.0,STARLINK-3796,PAYLOAD,2023-05-07 08:58:33,15.088489,0.0001362,53.2131,165.8113,74.4664,285.6478,0.0002961,4.429e-05,0.0,0 STARLINK-3796,1 52372U 22045AT  23127.37400223  .00004429  00000-0  29610-3 0  9998,2 52372  53.2131 165.8113 0001362  74.4664 285.6478 15.08848900 59315,6917.853,95.437,540.66,538.776,0.0
